{
    "links": {
        "self": "http://www.neowsapp.com/rest/v1/neo/3563279?api_key=iIulBulltgU6a56xZRHN4H3l9WmuAYTsLGpBGhQ2"
    },
    "id": "3563279",
    "neo_reference_id": "3563279",
    "name": "(2011 GE62)",
    "designation": "2011 GE62",
    "nasa_jpl_url": "http://ssd.jpl.nasa.gov/sbdb.cgi?sstr=3563279",
    "absolute_magnitude_h": 24.1,
    "estimated_diameter": {
        "kilometers": {
            "estimated_diameter_min": 0.040230458,
            "estimated_diameter_max": 0.0899580388
        },
        "meters": {
            "estimated_diameter_min": 40.2304579834,
            "estimated_diameter_max": 89.9580388169
        },
        "miles": {
            "estimated_diameter_min": 0.0249980399,
            "estimated_diameter_max": 0.0558973165
        },
        "feet": {
            "estimated_diameter_min": 131.9896957704,
            "estimated_diameter_max": 295.1379320721
        }
    },
    "is_potentially_hazardous_asteroid": false,
    "close_approach_data": [
        {
            "close_approach_date": "2011-04-09",
            "close_approach_date_full": "2011-Apr-09 03:07",
            "epoch_date_close_approach": 1302318420000,
            "relative_velocity": {
                "kilometers_per_second": "12.0241200355",
                "kilometers_per_hour": "43286.8321277532",
                "miles_per_hour": "26896.7541073809"
            },
            "miss_distance": {
                "astronomical": "0.0658813186",
                "lunar": "25.6278329354",
                "kilometers": "9855704.935351382",
                "miles": "6124051.0708057916"
            },
            "orbiting_body": "Earth"
        }
    ],
    "orbital_data": {
        "orbit_id": "7",
        "orbit_determination_date": "2017-04-06 08:53:43",
        "first_observation_date": "2011-04-12",
        "last_observation_date": "2011-04-14",
        "data_arc_in_days": 2,
        "observations_used": 26,
        "orbit_uncertainty": "9",
        "minimum_orbit_intersection": ".0628754",
        "jupiter_tisserand_invariant": "3.314",
        "epoch_osculation": "2455664.5",
        "eccentricity": ".5467146399730872",
        "semi_major_axis": "2.314292773122946",
        "inclination": "17.36843583725275",
        "ascending_node_longitude": "19.92653131430788",
        "orbital_period": "1285.955308653792",
        "perihelion_distance": "1.049035032872717",
        "perihelion_argument": "162.0765379528988",
        "aphelion_distance": "3.579550513373175",
        "perihelion_time": "2455646.889495636714",
        "mean_anomaly": "4.930017029456326",
        "mean_motion": ".279947520397787",
        "equinox": "J2000",
        "orbit_class": {
            "orbit_class_type": "AMO",
            "orbit_class_description": "Near-Earth asteroid orbits similar to that of 1221 Amor",
            "orbit_class_range": "1.017 AU < q (perihelion) < 1.3 AU"
        }
    },
    "is_sentry_object": false
}